NORAD_CAT_ID,OBJECT_NAME,OBJECT_TYPE,EPOCH,MEAN_MOTION,ECCENTRICITY,INCLINATION,RA_OF_ASC_NODE,ARG_OF_PERICENTER,MEAN_ANOMALY,BSTAR,MEAN_MOTION_DOT,MEAN_MOTION_DDOT,TLE_LINE0,TLE_LINE1,TLE_LINE2,SEMIMAJOR_AXIS,PERIOD,APOGEE,PERIGEE,DECAYED
52132.0,STARLINK-3718,PAYLOAD,2022-12-16 08:15:41,15.088432699999998,0.0002837,53.2192,323.4162,29.8541,330.2612,9.1075e-05,1.161e-05,0.0,0 STARLINK-3718,1 52132U 22029AW  22350.34423462  .00001161  00000-0  91075-4 0  9993,2 52132  53.2192 323.4162 0002837  29.8541 330.2612 15.08843270 42895,6917.87,95.437,541.698,537.773,0.0
52132.0,STARLINK-3718,PAYLOAD,2022-12-17 01:44:56,15.08846914,0.0002819,53.2187,320.1451,31.7566,328.3596,5.143600000000002e-05,5.3e-06,0.0,0 STARLINK-3718,1 52132U 22029AW  22351.07287111  .00000530  00000-0  51436-4 0  9999,2 52132  53.2187 320.1451 0002819  31.7566 328.3596 15.08846914 43004,6917.859,95.437,541.674,537.774,0.0
52132.0,STARLINK-3718,PAYLOAD,2022-12-17 06:31:06,15.0883773,0.0002794,53.2189,319.2534,29.6565,330.4585,-1.6016e-05,-5.43e-06,0.0,0 STARLINK-3718,1 52132U 22029AW  22351.27159796 -.00000543  00000-0 -16016-4 0  9999,2 52132  53.2189 319.2534 0002794  29.6565 330.4585 15.08837730 43035,6917.887,95.438,541.685,537.819,0.0
52132.0,STARLINK-3718,PAYLOAD,2022-12-17 14:28:02,15.08830938,0.0002888,53.2195,317.767,31.1191,328.9971,-1.725e-05,-5.63e-06,0.0,0 STARLINK-3718,1 52132U 22029AW  22351.60280344 -.00000563  00000-0 -17250-4 0  9993,2 52132  53.2195 317.7670 0002888  31.1191 328.9971 15.08830938 43082,6917.908,95.438,541.771,537.775,0.0
52132.0,STARLINK-3718,PAYLOAD,2022-12-18 04:46:30,15.08837319,0.0002748,53.2198,315.0912,29.0447,331.0698,2.7344e-05,1.47e-06,0.0,0 STARLINK-3718,1 52132U 22029AW  22352.19895931  .00000147  00000-0  27344-4 0  9993,2 52132  53.2198 315.0912 0002748  29.0447 331.0698 15.08837319 43171,6917.889,95.438,541.655,537.8530000000002,0.0
52132.0,STARLINK-3718,PAYLOAD,2022-12-18 07:57:16,15.08839927,0.0002758,53.2196,314.4958,29.4474,330.6673,6.6036e-05,7.63e-06,0.0,0 STARLINK-3718,1 52132U 22029AW  22352.33143684  .00000763  00000-0  66036-4 0  9995,2 52132  53.2196 314.4958 0002758  29.4474 330.6673 15.08839927 43194,6917.880999999999,95.438,541.654,537.8380000000002,0.0
52132.0,STARLINK-3718,PAYLOAD,2022-12-18 14:18:49,15.08836403,0.0002792,53.2192,313.3059,29.6403,330.4747,7.0492e-07,-2.77e-06,0.0,0 STARLINK-3718,1 52132U 22029AW  22352.59640159 -.00000277  00000-0  70492-6 0  9996,2 52132  53.2192 313.3059 0002792  29.6403 330.4747 15.08836403 43233,6917.891,95.438,541.688,537.825,0.0
52132.0,STARLINK-3718,PAYLOAD,2022-12-19 07:48:02,15.08849749,0.0002743,53.219,310.0353,29.3991,330.7155,0.00014913,2.086e-05,0.0,0 STARLINK-3718,1 52132U 22029AW  22353.32503023  .00002086  00000-0  14913-3 0  9998,2 52132  53.2190 310.0353 0002743  29.3991 330.7155 15.08849749 43342,6917.851,95.437,541.613,537.818,0.0
52132.0,STARLINK-3718,PAYLOAD,2022-12-19 14:09:36,15.0882406,0.000243,53.219,308.8456,29.4415,330.6713,3.5075e-06,-2.33e-06,0.0,0 STARLINK-3718,1 52132U 22029AW  22353.59001092 -.00000233  00000-0  35075-5 0  9993,2 52132  53.2190 308.8456 0002430  29.4415 330.6713 15.08824060 43388,6917.929,95.439,541.475,538.113,0.0
52132.0,STARLINK-3718,PAYLOAD,2022-12-19 20:31:09,15.08822244,0.000266,53.2187,307.6562,35.7058,324.4112,-2.9513e-06,-3.35e-06,0.0,0 STARLINK-3718,1 52132U 22029AW  22353.85497606 -.00000335  00000-0 -29513-5 0  9996,2 52132  53.2187 307.6562 0002660  35.7058 324.4112 15.08822244 43428,6917.935,95.439,541.64,537.9590000000002,0.0
52132.0,STARLINK-3718,PAYLOAD,2022-12-20 04:28:05,15.08832429,0.0002638,53.2194,306.1698,37.7767,322.341,3.4476e-06,-2.34e-06,0.0,0 STARLINK-3718,1 52132U 22029AW  22354.18617293 -.00000234  00000-0  34476-5 0  9990,2 52132  53.2194 306.1698 0002638  37.7767 322.3410 15.08832429 43473,6917.904,95.438,541.5930000000002,537.944,0.0
52132.0,STARLINK-3718,PAYLOAD,2022-12-21 01:08:06,15.08827533,0.000242,53.2182,302.3063,41.2651,318.8524,-4.1486e-05,-9.48e-06,0.0,0 STARLINK-3718,1 52132U 22029AW  22355.04730231 -.00000948  00000-0 -41486-4 0  9995,2 52132  53.2182 302.3063 0002420  41.2651 318.8524 15.08827533 43606,6917.918000000002,95.438,541.4580000000002,538.109,0.0
52132.0,STARLINK-3718,PAYLOAD,2022-12-21 04:18:52,15.08831753,0.000233,53.2176,301.7113,45.8711,314.2472,-1.5849e-05,-5.41e-06,0.0,0 STARLINK-3718,1 52132U 22029AW  22355.17977963 -.00000541  00000-0 -15849-4 0  9997,2 52132  53.2176 301.7113 0002330  45.8711 314.2472 15.08831753 43628,6917.906,95.438,541.382,538.159,0.0
52132.0,STARLINK-3718,PAYLOAD,2022-12-21 13:51:11,15.088391199999998,0.0002543,53.2183,299.9273,42.9641,317.155,-2.0554e-05,-6.16e-06,0.0,0 STARLINK-3718,1 52132U 22029AW  22355.57721723 -.00000616  00000-0 -20554-4 0  9994,2 52132  53.2183 299.9273 0002543  42.9641 317.1550 15.08839120 43688,6917.8830000000025,95.438,541.507,537.989,0.0
52132.0,STARLINK-3718,PAYLOAD,2022-12-22 05:45:03,15.08837676,0.0002499,53.2172,296.9535,39.8442,320.2733,0.00018782,2.702e-05,0.0,0 STARLINK-3718,1 52132U 22029AW  22356.23961819  .00002702  00000-0  18782-3 0  9995,2 52132  53.2172 296.9535 0002499  39.8442 320.2733 15.08837676 43781,6917.887,95.438,541.481,538.024,0.0
52132.0,STARLINK-3718,PAYLOAD,2022-12-22 13:41:58,15.08836733,0.0002129,53.2169,295.4653,48.0,312.1174,0.00014731,2.057e-05,0.0,0 STARLINK-3718,1 52132U 22029AW  22356.57081994  .00002057  00000-0  14731-3 0  9992,2 52132  53.2169 295.4653 0002129  48.0000 312.1174 15.08836733 43832,6917.89,95.438,541.2280000000002,538.283,0.0
52132.0,STARLINK-3718,PAYLOAD,2022-12-23 02:25:04,15.08835488,0.0002194,53.2168,293.0857,53.591,306.5285,0.00018404,2.642e-05,0.0,0 STARLINK-3718,1 52132U 22029AW  22357.10074350  .00002642  00000-0  18404-3 0  9991,2 52132  53.2168 293.0857 0002194  53.5910 306.5285 15.08835488 43919,6917.894,95.438,541.2769999999998,538.241,0.0
52132.0,STARLINK-3718,PAYLOAD,2022-12-23 05:35:50,15.08840888,0.0002196,53.2164,292.4908,55.7594,304.3605,0.0001485,2.076e-05,0.0,0 STARLINK-3718,1 52132U 22029AW  22357.23322121  .00002076  00000-0  14850-3 0  9999,2 52132  53.2164 292.4908 0002196  55.7594 304.3605 15.08840888 43933,6917.878000000002,95.437,541.262,538.224,0.0
52132.0,STARLINK-3718,PAYLOAD,2022-12-23 23:05:03,15.08853881,0.0002308,53.2161,289.2203,56.389,303.7322,0.00018852,2.714e-05,0.0,0 STARLINK-3718,1 52132U 22029AW  22357.96185049  .00002714  00000-0  18852-3 0  9990,2 52132  53.2161 289.2203 0002308  56.3890 303.7322 15.08853881 44042,6917.8380000000025,95.437,541.3,538.106,0.0
52132.0,STARLINK-3718,PAYLOAD,2022-12-24 02:15:50,15.08854409,0.0002157,53.2163,288.625,54.5434,305.5759,0.000208,3.025e-05,0.0,0 STARLINK-3718,1 52132U 22029AW  22358.09433291  .00003025  00000-0  20800-3 0  9992,2 52132  53.2163 288.6250 0002157  54.5434 305.5759 15.08854409 44068,6917.8359999999975,95.437,541.194,538.2090000000002,0.0
52132.0,STARLINK-3718,PAYLOAD,2022-12-24 19:45:05,15.08841818,0.0002216,53.2163,285.3561,54.717,305.4029,6.6164e-05,7.65e-06,0.0,0 STARLINK-3718,1 52132U 22029AW  22358.82297622  .00000765  00000-0  66164-4 0  9991,2 52132  53.2163 285.3561 0002216  54.7170 305.4029 15.08841818 44173,6917.875,95.437,541.273,538.207,0.0
52132.0,STARLINK-3718,PAYLOAD,2022-12-25 03:42:00,15.08843267,0.0002025,53.2173,283.8686,51.6106,308.5068,5.5683e-05,5.98e-06,0.0,0 STARLINK-3718,1 52132U 22029AW  22359.15417594  .00000598  00000-0  55683-4 0  9998,2 52132  53.2173 283.8686 0002025  51.6106 308.5068 15.08843267 44221,6917.87,95.437,541.136,538.335,0.0
52132.0,STARLINK-3718,PAYLOAD,2022-12-25 11:38:56,15.08844649,0.0002035,53.2167,282.3807,50.9779,309.1394,4.902e-05,4.92e-06,0.0,0 STARLINK-3718,1 52132U 22029AW  22359.48537366  .00000492  00000-0  49020-4 0  9995,2 52132  53.2167 282.3807 0002035  50.9779 309.1394 15.08844649 44271,6917.866,95.437,541.139,538.323,0.0
52132.0,STARLINK-3718,PAYLOAD,2022-12-25 19:35:52,15.08843792,0.0002011,53.2167,280.894,52.7675,307.35,-2.6135e-05,-7.04e-06,0.0,0 STARLINK-3718,1 52132U 22029AW  22359.81657482 -.00000704  00000-0 -26135-4 0  9994,2 52132  53.2167 280.8940 0002011  52.7675 307.3500 15.08843792 44324,6917.869000000002,95.437,541.125,538.3430000000002,0.0
52132.0,STARLINK-3718,PAYLOAD,2022-12-26 03:32:47,15.08842219,0.0002014,53.2167,279.4072,52.6375,307.48,-3.3719e-05,-8.25e-06,0.0,0 STARLINK-3718,1 52132U 22029AW  22360.14777592 -.00000825  00000-0 -33719-4 0  9997,2 52132  53.2167 279.4072 0002014  52.6375 307.4800 15.08842219 44375,6917.874,95.437,541.132,538.345,0.0
52132.0,STARLINK-3718,PAYLOAD,2022-12-27 01:48:11,15.08836396,0.0002002,53.2161,275.2421,48.4504,311.6659,7.7891e-05,9.52e-06,0.0,0 STARLINK-3718,1 52132U 22029AW  22361.07513813  .00000952  00000-0  77891-4 0  9992,2 52132  53.2161 275.2421 0002002  48.4504 311.6659 15.08836396 44519,6917.891,95.438,541.141,538.371,0.0
52132.0,STARLINK-3718,PAYLOAD,2022-12-27 11:20:29,15.08848593,0.0001999,53.2163,273.4599,48.4764,311.6399,0.00018635,2.68e-05,0.0,0 STARLINK-3718,1 52132U 22029AW  22361.47256859  .00002680  00000-0  18635-3 0  9990,2 52132  53.2163 273.4599 0001999  48.4764 311.6399 15.08848593 44578,6917.854,95.437,541.102,538.336,0.0
52132.0,STARLINK-3718,PAYLOAD,2022-12-28 00:03:33,15.08857808,0.0001903,53.2161,271.0811,47.8905,312.2249,0.00023751,3.496e-05,0.0,0 STARLINK-3718,1 52132U 22029AW  22362.00247639  .00003496  00000-0  23751-3 0  9997,2 52132  53.2161 271.0811 0001903  47.8905 312.2249 15.08857808 44651,6917.826,95.436,541.007,538.374,0.0
52132.0,STARLINK-3718,PAYLOAD,2022-12-29 03:05:09,15.08832811,0.0001867,53.2159,266.0251,47.7553,312.3597,-2.4627e-05,-6.8e-06,0.0,0 STARLINK-3718,1 52132U 22029AW  22363.12857654 -.00000680  00000-0 -24627-4 0  9993,2 52132  53.2159 266.0251 0001867  47.7553 312.3597 15.08832811 44820,6917.901999999999,95.438,541.059,538.476,0.0
